{
    "links": {
        "self": "http://www.neowsapp.com/rest/v1/neo/3739699?api_key=iIulBulltgU6a56xZRHN4H3l9WmuAYTsLGpBGhQ2"
    },
    "id": "3739699",
    "neo_reference_id": "3739699",
    "name": "(2016 AN131)",
    "designation": "2016 AN131",
    "nasa_jpl_url": "http://ssd.jpl.nasa.gov/sbdb.cgi?sstr=3739699",
    "absolute_magnitude_h": 24.1,
    "estimated_diameter": {
        "kilometers": {
            "estimated_diameter_min": 0.040230458,
            "estimated_diameter_max": 0.0899580388
        },
        "meters": {
            "estimated_diameter_min": 40.2304579834,
            "estimated_diameter_max": 89.9580388169
        },
        "miles": {
            "estimated_diameter_min": 0.0249980399,
            "estimated_diameter_max": 0.0558973165
        },
        "feet": {
            "estimated_diameter_min": 131.9896957704,
            "estimated_diameter_max": 295.1379320721
        }
    },
    "is_potentially_hazardous_asteroid": false,
    "close_approach_data": [
        {
            "close_approach_date": "2016-01-22",
            "close_approach_date_full": "2016-Jan-22 21:51",
            "epoch_date_close_approach": 1453499460000,
            "relative_velocity": {
                "kilometers_per_second": "8.8807169814",
                "kilometers_per_hour": "31970.581133149",
                "miles_per_hour": "19865.2758157614"
            },
            "miss_distance": {
                "astronomical": "0.134439644",
                "lunar": "52.297021516",
                "kilometers": "20111884.38595828",
                "miles": "12496945.466373064"
            },
            "orbiting_body": "Earth"
        },
        {
            "close_approach_date": "2016-07-03",
            "close_approach_date_full": "2016-Jul-03 07:39",
            "epoch_date_close_approach": 1467531540000,
            "relative_velocity": {
                "kilometers_per_second": "11.27871779",
                "kilometers_per_hour": "40603.384044117",
                "miles_per_hour": "25229.3638245237"
            },
            "miss_distance": {
                "astronomical": "0.0672621414",
                "lunar": "26.1649730046",
                "kilometers": "10062273.085078818",
                "miles": "6252406.5671229684"
            },
            "orbiting_body": "Mars"
        }
    ],
    "orbital_data": {
        "orbit_id": "5",
        "orbit_determination_date": "2017-04-06 08:29:15",
        "first_observation_date": "2016-01-11",
        "last_observation_date": "2016-01-15",
        "data_arc_in_days": 4,
        "observations_used": 18,
        "orbit_uncertainty": "8",
        "minimum_orbit_intersection": ".128262",
        "jupiter_tisserand_invariant": "4.387",
        "epoch_osculation": "2457399.5",
        "eccentricity": ".3327037289018411",
        "semi_major_axis": "1.53795354858731",
        "inclination": "11.85795240618026",
        "ascending_node_longitude": "279.3945996731891",
        "orbital_period": "696.6477753935869",
        "perihelion_distance": "1.026270668094493",
        "perihelion_argument": "240.553911584098",
        "aphelion_distance": "2.049636429080127",
        "perihelion_time": "2457443.597076679483",
        "mean_anomaly": "337.2123759447233",
        "mean_motion": ".516760424299941",
        "equinox": "J2000",
        "orbit_class": {
            "orbit_class_type": "AMO",
            "orbit_class_description": "Near-Earth asteroid orbits similar to that of 1221 Amor",
            "orbit_class_range": "1.017 AU < q (perihelion) < 1.3 AU"
        }
    },
    "is_sentry_object": false
}